GLOBALSTAR M084 [+]     
1 38040U 11080A   24005.58806843 -.00000079  00000+0  13970-3 0  9997
2 38040  51.9981 217.7242 0000928  66.3145 312.3074 12.62269939556194
GLOBALSTAR M080 [+]     
1 38041U 11080B   24005.03951274 -.00000082  00000+0  12230-3 0  9999
2 38041  52.0034 220.8159 0000784  58.1050 106.2702 12.62268146555963
GLOBALSTAR M082 [+]     
1 38042U 11080C   24005.41516800 -.00000083  00000+0  11363-3 0  9991
2 38042  52.0051 175.0592 0001702 101.2985 271.9505 12.62265074556726
GLOBALSTAR M092 [+]     
1 38043U 11080D   24005.70717392 -.00000092  00000+0  65481-4 0  9994
2 38043  52.0081 264.5248 0001006  44.7703 333.9371 12.62240449555423
GLOBALSTAR M090 [+]     
1 38044U 11080E   24005.86680303 -.00000089  00000+0  83053-4 0  9994
2 38044  51.9862 168.1726 0001325 103.5652  43.7207 12.62265251556939
GLOBALSTAR M086 [+]     
1 38045U 11080F   24005.64106253 -.00000077  00000+0  15213-3 0  9997
2 38045  51.9874 169.3710 0000898 155.2558 284.8641 12.62266381556814
GLOBALSTAR M097 [+]     
1 39072U 13005A   24005.57043815 -.00000113  00000+0 -51944-4 0  9997
2 39072  52.0054  83.5948 0000901 137.5075 222.5861 12.62273498504058
GLOBALSTAR M093 [+]     
1 39073U 13005B   24005.38545063 -.00000110  00000+0 -36267-4 0  9997
2 39073  51.9817  78.3057 0000951 147.2255 212.8671 12.62259521503983
